{
  "type": "FeatureCollection",
  "features": [
    {
      "type": "Feature",
      "properties": {
        "norad_id": 66604,
        "name": "STARLINK-35977",
        "group": "last-30-days",
        "lat": -37.456501829253064,
        "lon": 101.07671657876374,
        "alt_km": 446.0560375520954,
        "timestamp": "2025-12-18T23:35:47.780919+00:00",
        "meta_object_name": "STARLINK-35977",
        "meta_object_id": "2025-270S",
        "meta_epoch": "2025-12-18T16:00:00.999936",
        "meta_mean_motion": 15.40697927,
        "meta_eccentricity": 0.00017811,
        "meta_inclination": 42.9993,
        "meta_ra_of_asc_node": 158.2035,
        "meta_arg_of_pericenter": 272.0813,
        "meta_mean_anomaly": 67.1824,
        "meta_ephemeris_type": 0,
        "meta_classification_type": "U",
        "meta_norad_cat_id": 66604,
        "meta_element_set_no": 999,
        "meta_rev_at_epoch": 535,
        "meta_bstar": 3.0034015e-05,
        "meta_mean_motion_dot": 9.51e-06,
        "meta_mean_motion_ddot": 0,
        "tle_line1": "1 66604U 25270S   25352.66667824  .00000951  00000+0  30034-4 0  9998",
        "tle_line2": "2 66604  42.9993 158.2035 0001781 272.0813  67.1824 15.40697927  5355"
      },
      "geometry": {
        "type": "Point",
        "coordinates": [
          101.07671657876374,
          -37.456501829253064
        ]
      }
    },
    {
      "type": "Feature",
      "properties": {
        "norad_id": 66605,
        "name": "STARLINK-36052",
        "group": "last-30-days",
        "lat": 6.48226558224528,
        "lon": 163.2083217227017,
        "alt_km": 436.6244214593935,
        "timestamp": "2025-12-18T23:35:47.780929+00:00",
        "meta_object_name": "STARLINK-36052",
        "meta_object_id": "2025-270T",
        "meta_epoch": "2025-12-18T16:00:00.999936",
        "meta_mean_motion": 15.44358004,
        "meta_eccentricity": 0.00018587,
        "meta_inclination": 42.9995,
        "meta_ra_of_asc_node": 158.0371,
        "meta_arg_of_pericenter": 271.3471,
        "meta_mean_anomaly": 137.2526,
        "meta_ephemeris_type": 0,
        "meta_classification_type": "U",
        "meta_norad_cat_id": 66605,
        "meta_element_set_no": 999,
        "meta_rev_at_epoch": 535,
        "meta_bstar": -0.049030547,
        "meta_mean_motion_dot": -0.02058035,
        "meta_mean_motion_ddot": 0,
        "tle_line1": "1 66605U 25270T   25352.66667824 -.02058035  00000+0 -49031-1 0  9993",
        "tle_line2": "2 66605  42.9995 158.0371 0001858 271.3471 137.2526 15.44358004  5358"
      },
      "geometry": {
        "type": "Point",
        "coordinates": [
          163.2083217227017,
          6.48226558224528
        ]
      }
    },
    {
      "type": "Feature",
      "properties": {
        "norad_id": 66606,
        "name": "STARLINK-36063",
        "group": "last-30-days",
        "lat": 24.166721835662656,
        "lon": -175.08081719601242,
        "alt_km": 411.5920009786669,
        "timestamp": "2025-12-18T23:35:47.780941+00:00",
        "meta_object_name": "STARLINK-36063",
        "meta_object_id": "2025-270U",
        "meta_epoch": "2025-12-18T14:09:46.119168",
        "meta_mean_motion": 15.50609686,
        "meta_eccentricity": 0.00012898,
        "meta_inclination": 42.9992,
        "meta_ra_of_asc_node": 158.4324,
        "meta_arg_of_pericenter": 256.134,
        "meta_mean_anomaly": 103.9377,
        "meta_ephemeris_type": 0,
        "meta_classification_type": "U",
        "meta_norad_cat_id": 66606,
        "meta_element_set_no": 999,
        "meta_rev_at_epoch": 525,
        "meta_bstar": 0.0012683872,
        "meta_mean_motion_dot": 0.00074865,
        "meta_mean_motion_ddot": 0,
        "tle_line1": "1 66606U 25270U   25352.59011712  .00074865  00000+0  12684-2 0  9995",
        "tle_line2": "2 66606  42.9992 158.4324 0001289 256.1340 103.9377 15.50609686  5257"
      },
      "geometry": {
        "type": "Point",
        "coordinates": [
          -175.08081719601242,
          24.166721835662656
        ]
      }
    },
    {
      "type": "Feature",
      "properties": {
        "norad_id": 66607,
        "name": "STARLINK-35993",
        "group": "last-30-days",
        "lat": 12.758969702394719,
        "lon": 170.24683475873425,
        "alt_km": 431.92744685205525,
        "timestamp": "2025-12-18T23:35:47.780954+00:00",
        "meta_object_name": "STARLINK-35993",
        "meta_object_id": "2025-270V",
        "meta_epoch": "2025-12-18T16:00:00.999936",
        "meta_mean_motion": 15.45688348,
        "meta_eccentricity": 0.00017573,
        "meta_inclination": 42.9997,
        "meta_ra_of_asc_node": 158.0191,
        "meta_arg_of_pericenter": 272.6423,
        "meta_mean_anomaly": 143.7985,
        "meta_ephemeris_type": 0,
        "meta_classification_type": "U",
        "meta_norad_cat_id": 66607,
        "meta_element_set_no": 999,
        "meta_rev_at_epoch": 525,
        "meta_bstar": -0.046490773,
        "meta_mean_motion_dot": -0.02044763,
        "meta_mean_motion_ddot": 0,
        "tle_line1": "1 66607U 25270V   25352.66667824 -.02044763  00000+0 -46491-1 0  9995",
        "tle_line2": "2 66607  42.9997 158.0191 0001757 272.6423 143.7985 15.45688348  5259"
      },
      "geometry": {
        "type": "Point",
        "coordinates": [
          170.24683475873425,
          12.758969702394719
        ]
      }
    },
    {
      "type": "Feature",
      "properties": {
        "norad_id": 66608,
        "name": "STARLINK-36036",
        "group": "last-30-days",
        "lat": 25.309835748518132,
        "lon": -173.37397737133554,
        "alt_km": 411.5099669533083,
        "timestamp": "2025-12-18T23:35:47.780976+00:00",
        "meta_object_name": "STARLINK-36036",
        "meta_object_id": "2025-270W",
        "meta_epoch": "2025-12-18T12:36:30.937248",
        "meta_mean_motion": 15.5058938,
        "meta_eccentricity": 0.00018896,
        "meta_inclination": 42.9988,
        "meta_ra_of_asc_node": 158.8064,
        "meta_arg_of_pericenter": 268.4018,
        "meta_mean_anomaly": 91.6626,
        "meta_ephemeris_type": 0,
        "meta_classification_type": "U",
        "meta_norad_cat_id": 66608,
        "meta_element_set_no": 999,
        "meta_rev_at_epoch": 508,
        "meta_bstar": 0.0016197279,
        "meta_mean_motion_dot": 0.00095889,
        "meta_mean_motion_ddot": 0,
        "tle_line1": "1 66608U 25270W   25352.52535807  .00095889  00000+0  16197-2 0  9998",
        "tle_line2": "2 66608  42.9988 158.8064 0001889 268.4018  91.6626 15.50589380  5082"
      },
      "geometry": {
        "type": "Point",
        "coordinates": [
          -173.37397737133554,
          25.309835748518132
        ]
      }
    },
    {
      "type": "Feature",
      "properties": {
        "norad_id": 66609,
        "name": "STARLINK-36034",
        "group": "last-30-days",
        "lat": 26.40405472670526,
        "lon": -171.67994745313462,
        "alt_km": 411.64057574740855,
        "timestamp": "2025-12-18T23:35:47.780990+00:00",
        "meta_object_name": "STARLINK-36034",
        "meta_object_id": "2025-270X",
        "meta_epoch": "2025-12-18T14:08:46.764096",
        "meta_mean_motion": 15.50585524,
        "meta_eccentricity": 0.00016712,
        "meta_inclination": 42.999,
        "meta_ra_of_asc_node": 158.4276,
        "meta_arg_of_pericenter": 245.1871,
        "meta_mean_anomaly": 114.8816,
        "meta_ephemeris_type": 0,
        "meta_classification_type": "U",
        "meta_norad_cat_id": 66609,
        "meta_element_set_no": 999,
        "meta_rev_at_epoch": 509,
        "meta_bstar": 0.0013926046,
        "meta_mean_motion_dot": 0.00082238,
        "meta_mean_motion_ddot": 0,
        "tle_line1": "1 66609U 25270X   25352.58943014  .00082238  00000+0  13926-2 0  9999",
        "tle_line2": "2 66609  42.9990 158.4276 0001671 245.1871 114.8816 15.50585524  5091"
      },
      "geometry": {
        "type": "Point",
        "coordinates": [
          -171.67994745313462,
          26.40405472670526
        ]
      }
    },
    {
      "type": "Feature",
      "properties": {
        "norad_id": 66610,
        "name": "STARLINK-35680",
        "group": "last-30-days",
        "lat": 26.238527684022852,
        "lon": -171.93973038968574,
        "alt_km": 413.92739845739743,
        "timestamp": "2025-12-18T23:35:47.781001+00:00",
        "meta_object_name": "STARLINK-35680",
        "meta_object_id": "2025-270Y",
        "meta_epoch": "2025-12-18T09:30:14.955552",
        "meta_mean_motion": 15.49961335,
        "meta_eccentricity": 0.00034061,
        "meta_inclination": 42.9986,
        "meta_ra_of_asc_node": 159.5568,
        "meta_arg_of_pericenter": 267.0645,
        "meta_mean_anomaly": 92.9825,
        "meta_ephemeris_type": 0,
        "meta_classification_type": "U",
        "meta_norad_cat_id": 66610,
        "meta_element_set_no": 999,
        "meta_rev_at_epoch": 533,
        "meta_bstar": 0.0010793202,
        "meta_mean_motion_dot": 0.00062108,
        "meta_mean_motion_ddot": 0,
        "tle_line1": "1 66610U 25270Y   25352.39600643  .00062108  00000+0  10793-2 0  9991",
        "tle_line2": "2 66610  42.9986 159.5568 0003406 267.0645  92.9825 15.49961335  5333"
      },
      "geometry": {
        "type": "Point",
        "coordinates": [
          -171.93973038968574,
          26.238527684022852
        ]
      }
    }
  ]
}